OBJECT_NAME,OBJECT_ID,EPOCH,MEAN_MOTION,ECCENTRICITY,INCLINATION,RA_OF_ASC_NODE,ARG_OF_PERICENTER,MEAN_ANOMALY,EPHEMERIS_TYPE,CLASSIFICATION_TYPE,NORAD_CAT_ID,ELEMENT_SET_NO,REV_AT_EPOCH,BSTAR,MEAN_MOTION_DOT,MEAN_MOTION_DDOT
PERSEUS-M1,2014-033AF,2026-06-18T07:22:31.427616,14.95633663,.00102248,97.9641,113.4573,297.0546,62.9630,0,U,40039,999,65080,.12317381E-3,.1309E-4,0
POLYITAN-1,2014-033AJ,2026-06-18T00:44:56.527584,15.33281524,.00086912,98.0938,195.3722,138.9044,221.2853,0,U,40042,999,65372,.4871518E-3,.1561E-3,0
TIGRISAT,2014-033AK,2026-06-18T09:30:11.268000,14.85166384,.00505615,97.7831,319.3796,71.3546,289.3150,0,U,40043,999,64580,.19129818E-3,.1621E-4,0
AEROCUBE 6A,2014-033AM,2026-06-18T10:13:42.695040,14.98119366,.00388112,97.7249,336.3614,13.8936,346.3344,0,U,40045,999,64680,.33872806E-3,.4013E-4,0
AEROCUBE 6B,2014-033AN,2026-06-18T10:15:19.771488,14.99579623,.00382122,97.7247,336.1555,5.1104,355.0501,0,U,40046,999,64694,.31582167E-3,.3882E-4,0
CANX-4,2014-034C,2026-06-18T08:49:38.256960,14.81266555,.00130809,98.3120,44.7243,13.3649,346.7906,0,U,40055,999,64470,.10095638E-3,.73E-5,0
CANX-5,2014-034D,2026-06-18T08:47:21.699168,14.81283826,.00130891,98.3122,44.7663,13.5725,346.5836,0,U,40056,999,63551,.10175519E-3,.737E-5,0
UKUBE-1,2014-037F,2026-06-17T23:04:40.533600,15.13564400,.000264,98.4232,172.3147,131.7969,228.3486,0,U,40074,999,64867,.43096833E-3,.7654E-4,0
BRITE-PL2 (HEWELIUSZ),2014-049B,2026-06-18T13:52:43.989888,14.94597585,.00153248,97.9099,281.5889,104.3589,255.9333,0,U,40119,999,64165,.15240957E-3,.1593E-4,0
AEROCUBE 5C,2015-058B,2026-06-18T12:17:06.222912,14.91458402,.01308082,64.7674,258.4697,62.7526,298.6842,0,U,40965,999,36585,.15832693E-3,.1689E-4,0
AEROCUBE 7,2015-058C,2026-06-18T07:17:32.112096,14.95731068,.01205114,64.7616,241.3184,61.2612,300.0548,0,U,40966,999,36612,.20050484E-3,.2407E-4,0
FOX-1A (AO-85),2015-058D,2026-06-18T13:26:15.527616,14.90974956,.01305383,64.7759,274.7182,56.0558,305.2883,0,U,40967,999,11377,.17228667E-3,.1828E-4,0
SINOD-D 1,2015-058E,2026-06-18T05:09:19.563264,14.95910862,.01190974,64.7751,255.6947,52.6726,308.5169,0,U,40968,999,11681,.20144944E-3,.2423E-4,0
SNAP-3 ALICE,2015-058G,2026-06-18T12:28:33.221280,15.60328596,.0027823,64.7502,99.3248,12.0699,348.1107,0,U,40970,999,11709,.12411524E-2,.105258E-2,0
LMRST-SAT,2015-058H,2026-06-18T07:32:33.844704,14.90593890,.01321456,64.7763,271.8213,58.1750,303.2148,0,U,40971,999,11372,.1588065E-3,.1659E-4,0
SNAP-3 EDDIE,2015-058J,2026-06-18T12:12:39.183840,15.61614603,.00274774,64.7423,90.0775,16.0390,344.1620,0,U,40972,999,11923,.11843038E-2,.10551E-2,0
PROPCUBE 3,2015-058K,2026-06-18T11:32:34.318464,14.94262887,.01241085,64.7681,248.4938,59.4060,301.9226,0,U,40973,999,11499,.1795499E-3,.2066E-4,0
BISONSAT,2015-058L,2026-06-18T06:52:24.887424,15.16210467,.00791424,64.7580,170.0907,46.8172,313.9529,0,U,40974,999,11578,.47758189E-3,.9843E-4,0
SNAP-3 JIMI,2015-058M,2026-06-18T06:06:11.482848,15.02305085,.01062266,64.7633,216.3962,54.9329,306.1695,0,U,40975,999,11438,.24340033E-3,.3453E-4,0
PROPCUBE 1 (FLORA),2015-058N,2026-06-18T14:32:39.418656,14.89227470,.01308211,64.7755,290.8386,60.3716,301.0352,0,U,40976,999,11647,.17479644E-3,.1769E-4,0
SINOD-D 3,2015-058P,2026-06-18T13:54:53.475840,14.94023001,.01193312,64.7729,271.4706,57.5879,303.6712,0,U,40977,999,11496,.21236872E-3,.2433E-4,0
HORYU-4,2016-012D,2026-06-18T01:30:03.446496,15.96640257,.00059419,30.9844,72.5998,278.9863,81.0127,0,U,41340,999,57095,.98166813E-3,.440932E-2,.72867516E-4
RAVAN,2016-067B,2026-06-18T04:51:09.612576,15.54764284,.00042422,97.9884,58.8909,28.9137,331.2350,0,U,41849,999,52785,.59215729E-3,.39399E-3,0
CELTEE 1,2016-067C,2026-06-18T03:05:39.183072,15.19689359,.00009801,98.0668,35.7600,126.8812,233.2511,0,U,41850,999,52602,.1868276E-3,.391E-4,0
OPTICUBE 04,2016-067D,2026-06-18T12:53:49.316640,15.09664347,.00169387,98.0698,21.8916,111.3354,248.9683,0,U,41851,999,52537,.12559348E-3,.1956E-4,0
AEROCUBE 8D,2016-067E,2026-06-18T14:23:32.285472,15.24413704,.0004791,98.0674,39.8781,119.8253,240.3459,0,U,41852,999,52628,.24560244E-3,.5942E-4,0
AEROCUBE 8C,2016-067F,2026-06-18T03:57:38.382048,15.24657454,.00065628,98.0544,36.6365,66.3960,293.7964,0,U,41853,999,52621,.24352484E-3,.5936E-4,0
CORVUS BC2,2017-042X,2026-06-18T09:22:27.433056,15.06304598,.00144335,97.4071,330.6930,106.7137,253.5676,0,U,42846,999,48724,.21696047E-3,.3135E-4,0
CORVUS BC1,2017-042Y,2026-06-18T12:25:47.597664,15.06474492,.00134476,97.4106,331.6305,85.2271,275.0492,0,U,42847,999,48729,.18905488E-3,.2736E-4,0
MAKERSAT 0,2017-073D,2026-06-18T14:48:09.690912,15.32138108,.01050198,97.4614,52.1465,267.8006,91.1207,0,U,43016,999,46668,.38538024E-3,.14158E-3,0
